-- Paste in phpMyAdmin SQL tab (after schema_crondb.sql)
USE DEINE_DB;

INSERT INTO dwd_feed_lag (logged_at_berlin,dwd_latest,dwd_lag_min,dwd_values_today,dwd_max,dwd_max_time,metar_latest,metar_lag_min,metar_values_today,metar_max,metar_max_time,dwd_tt10,metar_temp,metar_raw_ob) VALUES ('2026-07-09 19:04','2026-07-09 16:20',164,99,25.7,'2026-07-09 15:20','2026-07-09 18:50',14,38,26,'2026-07-09 17:20',NULL,NULL,NULL) ON DUPLICATE KEY UPDATE dwd_lag_min=VALUES(dwd_lag_min), metar_lag_min=VALUES(metar_lag_min);
INSERT INTO dwd_feed_lag (logged_at_berlin,dwd_latest,dwd_lag_min,dwd_values_today,dwd_max,dwd_max_time,metar_latest,metar_lag_min,metar_values_today,metar_max,metar_max_time,dwd_tt10,metar_temp,metar_raw_ob) VALUES ('2026-07-09 19:12','2026-07-09 16:20',172,99,25.7,'2026-07-09 15:20','2026-07-09 18:50',22,38,26,'2026-07-09 17:20',25.0,25,'METAR EDDM 091650Z AUTO 34006KT 300V040 CAVOK 25/12 Q1016 NOSIG') ON DUPLICATE KEY UPDATE dwd_lag_min=VALUES(dwd_lag_min), metar_lag_min=VALUES(metar_lag_min);
INSERT INTO dwd_feed_lag (logged_at_berlin,dwd_latest,dwd_lag_min,dwd_values_today,dwd_max,dwd_max_time,metar_latest,metar_lag_min,metar_values_today,metar_max,metar_max_time,dwd_tt10,metar_temp,metar_raw_ob) VALUES ('2026-07-09 20:10','2026-07-09 17:20',170,105,25.7,'2026-07-09 15:20','2026-07-09 19:50',20,40,26,'2026-07-09 17:20',24.5,24,'METAR EDDM 091750Z AUTO 35004KT 320V020 CAVOK 24/13 Q1016 NOSIG') ON DUPLICATE KEY UPDATE dwd_lag_min=VALUES(dwd_lag_min), metar_lag_min=VALUES(metar_lag_min);
INSERT INTO dwd_feed_lag (logged_at_berlin,dwd_latest,dwd_lag_min,dwd_values_today,dwd_max,dwd_max_time,metar_latest,metar_lag_min,metar_values_today,metar_max,metar_max_time,dwd_tt10,metar_temp,metar_raw_ob) VALUES ('2026-07-09 20:49','2026-07-09 17:50',179,108,25.7,'2026-07-09 15:20','2026-07-09 20:20',29,41,26,'2026-07-09 17:20',24.0,24,'METAR EDDM 091820Z AUTO 36004KT 320V030 CAVOK 24/13 Q1016 NOSIG') ON DUPLICATE KEY UPDATE dwd_lag_min=VALUES(dwd_lag_min), metar_lag_min=VALUES(metar_lag_min);
INSERT INTO dwd_feed_lag (logged_at_berlin,dwd_latest,dwd_lag_min,dwd_values_today,dwd_max,dwd_max_time,metar_latest,metar_lag_min,metar_values_today,metar_max,metar_max_time,dwd_tt10,metar_temp,metar_raw_ob) VALUES ('2026-07-09 20:50','2026-07-09 18:20',150,111,25.7,'2026-07-09 15:20','2026-07-09 20:20',30,41,26,'2026-07-09 17:20',23.3,24,'METAR EDDM 091820Z AUTO 36004KT 320V030 CAVOK 24/13 Q1016 NOSIG') ON DUPLICATE KEY UPDATE dwd_lag_min=VALUES(dwd_lag_min), metar_lag_min=VALUES(metar_lag_min);
INSERT INTO dwd_feed_lag (logged_at_berlin,dwd_latest,dwd_lag_min,dwd_values_today,dwd_max,dwd_max_time,metar_latest,metar_lag_min,metar_values_today,metar_max,metar_max_time,dwd_tt10,metar_temp,metar_raw_ob) VALUES ('2026-07-09 21:00','2026-07-09 18:20',160,111,25.7,'2026-07-09 15:20','2026-07-09 20:50',10,42,26,'2026-07-09 17:20',23.3,23,'METAR EDDM 091850Z AUTO 35003KT 320V030 CAVOK 23/13 Q1016 NOSIG') ON DUPLICATE KEY UPDATE dwd_lag_min=VALUES(dwd_lag_min), metar_lag_min=VALUES(metar_lag_min);
INSERT INTO dwd_feed_lag (logged_at_berlin,dwd_latest,dwd_lag_min,dwd_values_today,dwd_max,dwd_max_time,metar_latest,metar_lag_min,metar_values_today,metar_max,metar_max_time,dwd_tt10,metar_temp,metar_raw_ob) VALUES ('2026-07-09 21:10','2026-07-09 18:20',170,111,25.7,'2026-07-09 15:20','2026-07-09 20:50',20,42,26,'2026-07-09 17:20',23.3,23,'METAR EDDM 091850Z AUTO 35003KT 320V030 CAVOK 23/13 Q1016 NOSIG') ON DUPLICATE KEY UPDATE dwd_lag_min=VALUES(dwd_lag_min), metar_lag_min=VALUES(metar_lag_min);
INSERT INTO dwd_feed_lag (logged_at_berlin,dwd_latest,dwd_lag_min,dwd_values_today,dwd_max,dwd_max_time,metar_latest,metar_lag_min,metar_values_today,metar_max,metar_max_time,dwd_tt10,metar_temp,metar_raw_ob) VALUES ('2026-07-09 21:20','2026-07-09 18:50',150,114,25.7,'2026-07-09 15:20','2026-07-09 20:50',30,42,26,'2026-07-09 17:20',22.5,23,'METAR EDDM 091850Z AUTO 35003KT 320V030 CAVOK 23/13 Q1016 NOSIG') ON DUPLICATE KEY UPDATE dwd_lag_min=VALUES(dwd_lag_min), metar_lag_min=VALUES(metar_lag_min);
INSERT INTO dwd_feed_lag (logged_at_berlin,dwd_latest,dwd_lag_min,dwd_values_today,dwd_max,dwd_max_time,metar_latest,metar_lag_min,metar_values_today,metar_max,metar_max_time,dwd_tt10,metar_temp,metar_raw_ob) VALUES ('2026-07-09 21:30','2026-07-09 18:50',160,114,25.7,'2026-07-09 15:20','2026-07-09 21:20',10,43,26,'2026-07-09 17:20',22.5,21,'METAR EDDM 091920Z AUTO 36002KT CAVOK 21/13 Q1017 NOSIG') ON DUPLICATE KEY UPDATE dwd_lag_min=VALUES(dwd_lag_min), metar_lag_min=VALUES(metar_lag_min);
INSERT INTO dwd_feed_lag (logged_at_berlin,dwd_latest,dwd_lag_min,dwd_values_today,dwd_max,dwd_max_time,metar_latest,metar_lag_min,metar_values_today,metar_max,metar_max_time,dwd_tt10,metar_temp,metar_raw_ob) VALUES ('2026-07-09 21:40','2026-07-09 18:50',170,114,25.7,'2026-07-09 15:20','2026-07-09 21:20',20,43,26,'2026-07-09 17:20',22.5,21,'METAR EDDM 091920Z AUTO 36002KT CAVOK 21/13 Q1017 NOSIG') ON DUPLICATE KEY UPDATE dwd_lag_min=VALUES(dwd_lag_min), metar_lag_min=VALUES(metar_lag_min);
INSERT INTO dwd_feed_lag (logged_at_berlin,dwd_latest,dwd_lag_min,dwd_values_today,dwd_max,dwd_max_time,metar_latest,metar_lag_min,metar_values_today,metar_max,metar_max_time,dwd_tt10,metar_temp,metar_raw_ob) VALUES ('2026-07-09 21:50','2026-07-09 19:20',150,117,25.7,'2026-07-09 15:20','2026-07-09 21:20',30,43,26,'2026-07-09 17:20',21.0,21,'METAR EDDM 091920Z AUTO 36002KT CAVOK 21/13 Q1017 NOSIG') ON DUPLICATE KEY UPDATE dwd_lag_min=VALUES(dwd_lag_min), metar_lag_min=VALUES(metar_lag_min);
INSERT INTO dwd_feed_lag (logged_at_berlin,dwd_latest,dwd_lag_min,dwd_values_today,dwd_max,dwd_max_time,metar_latest,metar_lag_min,metar_values_today,metar_max,metar_max_time,dwd_tt10,metar_temp,metar_raw_ob) VALUES ('2026-07-09 22:01','2026-07-09 19:20',161,117,25.7,'2026-07-09 15:20','2026-07-09 21:50',11,44,26,'2026-07-09 17:20',21.0,20,'METAR EDDM 091950Z AUTO VRB01KT CAVOK 20/13 Q1017 NOSIG') ON DUPLICATE KEY UPDATE dwd_lag_min=VALUES(dwd_lag_min), metar_lag_min=VALUES(metar_lag_min);
INSERT INTO dwd_feed_lag (logged_at_berlin,dwd_latest,dwd_lag_min,dwd_values_today,dwd_max,dwd_max_time,metar_latest,metar_lag_min,metar_values_today,metar_max,metar_max_time,dwd_tt10,metar_temp,metar_raw_ob) VALUES ('2026-07-09 22:10','2026-07-09 19:20',170,117,25.7,'2026-07-09 15:20','2026-07-09 21:50',20,44,26,'2026-07-09 17:20',21.0,20,'METAR EDDM 091950Z AUTO VRB01KT CAVOK 20/13 Q1017 NOSIG') ON DUPLICATE KEY UPDATE dwd_lag_min=VALUES(dwd_lag_min), metar_lag_min=VALUES(metar_lag_min);
INSERT INTO dwd_feed_lag (logged_at_berlin,dwd_latest,dwd_lag_min,dwd_values_today,dwd_max,dwd_max_time,metar_latest,metar_lag_min,metar_values_today,metar_max,metar_max_time,dwd_tt10,metar_temp,metar_raw_ob) VALUES ('2026-07-09 22:20','2026-07-09 19:50',150,120,25.7,'2026-07-09 15:20','2026-07-09 21:50',30,44,26,'2026-07-09 17:20',20.4,20,'METAR EDDM 091950Z AUTO VRB01KT CAVOK 20/13 Q1017 NOSIG') ON DUPLICATE KEY UPDATE dwd_lag_min=VALUES(dwd_lag_min), metar_lag_min=VALUES(metar_lag_min);
INSERT INTO dwd_feed_lag (logged_at_berlin,dwd_latest,dwd_lag_min,dwd_values_today,dwd_max,dwd_max_time,metar_latest,metar_lag_min,metar_values_today,metar_max,metar_max_time,dwd_tt10,metar_temp,metar_raw_ob) VALUES ('2026-07-09 22:30','2026-07-09 19:50',160,120,25.7,'2026-07-09 15:20','2026-07-09 22:20',10,45,26,'2026-07-09 17:20',20.4,20,'METAR EDDM 092020Z AUTO 35002KT CAVOK 20/12 Q1017 NOSIG') ON DUPLICATE KEY UPDATE dwd_lag_min=VALUES(dwd_lag_min), metar_lag_min=VALUES(metar_lag_min);
INSERT INTO dwd_feed_lag (logged_at_berlin,dwd_latest,dwd_lag_min,dwd_values_today,dwd_max,dwd_max_time,metar_latest,metar_lag_min,metar_values_today,metar_max,metar_max_time,dwd_tt10,metar_temp,metar_raw_ob) VALUES ('2026-07-09 22:40','2026-07-09 19:50',170,120,25.7,'2026-07-09 15:20','2026-07-09 22:20',20,45,26,'2026-07-09 17:20',20.4,20,'METAR EDDM 092020Z AUTO 35002KT CAVOK 20/12 Q1017 NOSIG') ON DUPLICATE KEY UPDATE dwd_lag_min=VALUES(dwd_lag_min), metar_lag_min=VALUES(metar_lag_min);
INSERT INTO dwd_feed_lag (logged_at_berlin,dwd_latest,dwd_lag_min,dwd_values_today,dwd_max,dwd_max_time,metar_latest,metar_lag_min,metar_values_today,metar_max,metar_max_time,dwd_tt10,metar_temp,metar_raw_ob) VALUES ('2026-07-09 22:50','2026-07-09 20:20',150,123,25.7,'2026-07-09 15:20','2026-07-09 22:20',30,45,26,'2026-07-09 17:20',20.2,20,'METAR EDDM 092020Z AUTO 35002KT CAVOK 20/12 Q1017 NOSIG') ON DUPLICATE KEY UPDATE dwd_lag_min=VALUES(dwd_lag_min), metar_lag_min=VALUES(metar_lag_min);
INSERT INTO dwd_feed_lag (logged_at_berlin,dwd_latest,dwd_lag_min,dwd_values_today,dwd_max,dwd_max_time,metar_latest,metar_lag_min,metar_values_today,metar_max,metar_max_time,dwd_tt10,metar_temp,metar_raw_ob) VALUES ('2026-07-09 23:01','2026-07-09 20:20',161,123,25.7,'2026-07-09 15:20','2026-07-09 22:50',11,46,26,'2026-07-09 17:20',20.2,18,'METAR EDDM 092050Z AUTO 34002KT CAVOK 18/12 Q1017 NOSIG') ON DUPLICATE KEY UPDATE dwd_lag_min=VALUES(dwd_lag_min), metar_lag_min=VALUES(metar_lag_min);
INSERT INTO dwd_feed_lag (logged_at_berlin,dwd_latest,dwd_lag_min,dwd_values_today,dwd_max,dwd_max_time,metar_latest,metar_lag_min,metar_values_today,metar_max,metar_max_time,dwd_tt10,metar_temp,metar_raw_ob) VALUES ('2026-07-09 23:10','2026-07-09 20:20',170,123,25.7,'2026-07-09 15:20','2026-07-09 22:50',20,46,26,'2026-07-09 17:20',20.2,18,'METAR EDDM 092050Z AUTO 34002KT CAVOK 18/12 Q1017 NOSIG') ON DUPLICATE KEY UPDATE dwd_lag_min=VALUES(dwd_lag_min), metar_lag_min=VALUES(metar_lag_min);
INSERT INTO dwd_feed_lag (logged_at_berlin,dwd_latest,dwd_lag_min,dwd_values_today,dwd_max,dwd_max_time,metar_latest,metar_lag_min,metar_values_today,metar_max,metar_max_time,dwd_tt10,metar_temp,metar_raw_ob) VALUES ('2026-07-09 23:20','2026-07-09 20:50',150,126,25.7,'2026-07-09 15:20','2026-07-09 22:50',30,46,26,'2026-07-09 17:20',18.0,18,'METAR EDDM 092050Z AUTO 34002KT CAVOK 18/12 Q1017 NOSIG') ON DUPLICATE KEY UPDATE dwd_lag_min=VALUES(dwd_lag_min), metar_lag_min=VALUES(metar_lag_min);
INSERT INTO dwd_feed_lag (logged_at_berlin,dwd_latest,dwd_lag_min,dwd_values_today,dwd_max,dwd_max_time,metar_latest,metar_lag_min,metar_values_today,metar_max,metar_max_time,dwd_tt10,metar_temp,metar_raw_ob) VALUES ('2026-07-09 23:30','2026-07-09 20:50',160,126,25.7,'2026-07-09 15:20','2026-07-09 23:20',10,47,26,'2026-07-09 17:20',18.0,16,'METAR EDDM 092120Z AUTO 34003KT CAVOK 16/12 Q1017 NOSIG') ON DUPLICATE KEY UPDATE dwd_lag_min=VALUES(dwd_lag_min), metar_lag_min=VALUES(metar_lag_min);
INSERT INTO dwd_feed_lag (logged_at_berlin,dwd_latest,dwd_lag_min,dwd_values_today,dwd_max,dwd_max_time,metar_latest,metar_lag_min,metar_values_today,metar_max,metar_max_time,dwd_tt10,metar_temp,metar_raw_ob) VALUES ('2026-07-09 23:40','2026-07-09 20:50',170,126,25.7,'2026-07-09 15:20','2026-07-09 23:20',20,47,26,'2026-07-09 17:20',18.0,16,'METAR EDDM 092120Z AUTO 34003KT CAVOK 16/12 Q1017 NOSIG') ON DUPLICATE KEY UPDATE dwd_lag_min=VALUES(dwd_lag_min), metar_lag_min=VALUES(metar_lag_min);
INSERT INTO dwd_feed_lag (logged_at_berlin,dwd_latest,dwd_lag_min,dwd_values_today,dwd_max,dwd_max_time,metar_latest,metar_lag_min,metar_values_today,metar_max,metar_max_time,dwd_tt10,metar_temp,metar_raw_ob) VALUES ('2026-07-09 23:50','2026-07-09 21:20',150,129,25.7,'2026-07-09 15:20','2026-07-09 23:20',30,47,26,'2026-07-09 17:20',15.5,16,'METAR EDDM 092120Z AUTO 34003KT CAVOK 16/12 Q1017 NOSIG') ON DUPLICATE KEY UPDATE dwd_lag_min=VALUES(dwd_lag_min), metar_lag_min=VALUES(metar_lag_min);
INSERT INTO dwd_feed_lag (logged_at_berlin,dwd_latest,dwd_lag_min,dwd_values_today,dwd_max,dwd_max_time,metar_latest,metar_lag_min,metar_values_today,metar_max,metar_max_time,dwd_tt10,metar_temp,metar_raw_ob) VALUES ('2026-07-10 00:00',NULL,NULL,0,NULL,NULL,NULL,NULL,0,NULL,NULL,NULL,NULL,NULL) ON DUPLICATE KEY UPDATE dwd_lag_min=VALUES(dwd_lag_min), metar_lag_min=VALUES(metar_lag_min);
INSERT INTO dwd_feed_lag (logged_at_berlin,dwd_latest,dwd_lag_min,dwd_values_today,dwd_max,dwd_max_time,metar_latest,metar_lag_min,metar_values_today,metar_max,metar_max_time,dwd_tt10,metar_temp,metar_raw_ob) VALUES ('2026-07-10 00:10',NULL,NULL,0,NULL,NULL,NULL,NULL,0,NULL,NULL,NULL,NULL,NULL) ON DUPLICATE KEY UPDATE dwd_lag_min=VALUES(dwd_lag_min), metar_lag_min=VALUES(metar_lag_min);
